INTELSAT 10 (IS-10)     
1 26766U 01019A   26060.33551906 -.00000287  00000+0  00000+0 0  9990
2 26766   8.8184  60.3522 0006029 263.3849 112.9677  0.99042199 44518
INTELSAT 902 (IS-902)   
1 26900U 01039A   26060.43717951 -.00000299  00000+0  00000+0 0  9990
2 26900   5.8449  73.0995 0004613 271.5103 281.9066  1.00271353 89613
INTELSAT 904 (IS-904)   
1 27380U 02007A   26060.29825221 -.00000242  00000+0  00000+0 0  9991
2 27380   6.6510  70.4779 0005975 304.7857 219.6908  1.00270605 50689
DIRECTV 5 (TEMPO 1)     
1 27426U 02023A   26060.40058707 -.00000074  00000+0  00000+0 0  9993
2 27426   4.6027  76.6579 0003572 266.6580 209.9786  1.00271759 87044
INTELSAT 905 (IS-905)   
1 27438U 02027A   26057.06815963  .00000083  00000+0  00000+0 0  9992
2 27438   6.4740  71.1375 0003033 266.5056  65.6055  1.00272444 50242
GALAXY 3C (G-3C)        
1 27445U 02030A   26059.57264626 -.00000170  00000+0  00000+0 0  9994
2 27445   3.4547  79.5120 0000807  37.3162 152.8592  1.00271161 45402
INTELSAT 906 (IS-906)   
1 27513U 02041A   26060.17457834 -.00000004  00000+0  00000+0 0  9991
2 27513   5.5280  74.2541 0003283 253.1119 318.5971  1.00272294 85948
GALAXY 13 (HORIZONS-1)  
1 27954U 03044A   26060.52717860  .00000115  00000+0  00000+0 0  9993
2 27954   1.1394  85.3522 0002171 256.5176 217.2129  1.00271280 45492
INTELSAT 10-02          
1 28358U 04022A   26060.37564590 -.00000030  00000+0  00000+0 0  9999
2 28358   0.0167 118.2976 0001053 244.9884 290.0998  1.00270198 79476
DIRECTV 8               
1 28659U 05019A   26060.51352645 -.00000017  00000+0  00000+0 0  9997
2 28659   0.0153 136.5481 0003261 214.2172 234.3369  1.00271885 75992
GALAXY 28 (G-28)        
1 28702U 05022A   26060.44177288 -.00000219  00000+0  00000+0 0  9994
2 28702   3.0220  80.2906 0003090 257.7964 313.0739  1.00258494 50896
GALAXY 16 (G-16)        
1 29236U 06023A   26060.35623248 -.00000145  00000+0  00000+0 0  9999
2 29236   0.0384 218.9861 0002331 133.6549 195.7311  1.00270023 71891
DIRECTV 9S              
1 29494U 06043A   26060.42712615 -.00000131  00000+0  00000+0 0  9997
2 29494   2.1426  82.2398 0003135 261.2242 228.3051  1.00271241 50305
GALAXY 17 (G-17)        
1 31307U 07016B   26060.43033281 -.00000224  00000+0  00000+0 0  9993
2 31307   2.6990  81.2796 0003278 256.5111 251.3404  1.00270730 68728
DIRECTV 10              
1 31862U 07032A   26060.38985931  .00000006  00000+0  00000+0 0  9996
2 31862   0.1238 101.7296 0006486 270.0678 358.3961  0.98335599 44505
INTELSAT 11 (IS-11)     
1 32253U 07044B   26060.51429142  .00000055  00000+0  00000+0 0  9990
2 32253   3.2849  79.9969 0005482 203.3840 300.2988  0.99047727 67380
HORIZONS-2              
1 32388U 07063B   26060.43249949 -.00000271  00000+0  00000+0 0  9997
2 32388   2.3242  81.9918 0002893 248.8593 270.2706  1.00272338 66738
DIRECTV 11              
1 32729U 08013A   26060.33641933 -.00000144  00000+0  00000+0 0  9999
2 32729   0.0021 272.5400 0000284  75.0890 193.4078  1.00271371 44519
GALAXY 18 (G-18)        
1 32951U 08024A   26060.51560539  .00000007  00000+0  00000+0 0  9997
2 32951   0.0191 230.4838 0003061 121.2849 230.1400  1.00272603 44771
INTELSAT 25 (IS-25)     
1 33153U 08034A   26060.44090620 -.00000242  00000+0  00000+0 0  9996
2 33153   2.4296  81.6576 0003913 238.3080 326.4878  1.00270855 64616
GALAXY 19 (G-19)        
1 33376U 08045A   26060.42790615 -.00000157  00000+0  00000+0 0  9999
2 33376   0.0566 267.6924 0003069  80.8304 227.7203  1.00271884 63821
FM-5                    
1 35493U 09034A   26060.43007281 -.00000218  00000+0  00000+0 0  9999
2 35493   0.0420 276.7681 0001217 303.8907   7.2160  1.00268355 45566
INTELSAT 14 (IS-14)     
1 36097U 09064A   26060.43821953 -.00000292  00000+0  00000+0 0  9995
2 36097   0.0137 100.4921 0002533 249.3767 282.1062  1.00272003 59523
INTELSAT 15 (IS-15)     
1 36106U 09067A   26060.39271933 -.00000203  00000+0  00000+0 0  9993
2 36106   0.0166  97.8739 0002366 245.0261  42.8031  1.00271651 40141
DIRECTV 12              
1 36131U 09075A   26060.42677947 -.00000122  00000+0  00000+0 0  9999
2 36131   0.0188 319.1212 0000404  20.5356 230.4799  1.00273549 45476
INTELSAT 16 (IS-16)     
1 36397U 10006A   26060.43206617  .00000000  00000+0  00000+0 0  9996
2 36397   0.0228 132.8336 0001836 213.3485 252.4074  1.00263610 58570
XM-5                    
1 37185U 10053A   26060.49217104 -.00000043  00000+0  00000+0 0  9991
2 37185   0.0690 275.1966 0002811 273.9943  32.0778  1.00279892 56406
INTELSAT 17 (IS-17)     
1 37238U 10065B   26060.38873264 -.00000020  00000+0  00000+0 0  9991
2 37238   0.0140 160.8334 0002434 183.8879  20.3940  1.00271543 52167
INTELSAT 28 (IS-28)     
1 37392U 11016A   26060.43794685 -.00000243  00000+0  00000+0 0  9991
2 37392   1.5276  84.0238 0004536 252.2076 308.9406  1.00270727 52209
INTELSAT 18 (IS-18)     
1 37834U 11056A   26060.37037227  .00000034  00000+0  00000+0 0  9998
2 37834   0.0301 254.5731 0002055  80.4342 137.4684  1.00268473 52732
INTELSAT 22 (IS-22)     
1 38098U 12011A   26060.39011931 -.00000077  00000+0  00000+0 0  9997
2 38098   0.0246 102.7198 0001656 252.7737  16.2262  1.00271458  6105
INTELSAT 19 (IS-19)     
1 38356U 12030A   26060.48855172 -.00000075  00000+0  00000+0 0  9996
2 38356   0.0154 117.3186 0003064 231.1855 152.6415  1.00271653 49374
INTELSAT 20 (IS-20)     
1 38740U 12043A   26060.38925264 -.00000043  00000+0  00000+0 0  9991
2 38740   0.0233 125.7892 0002339  34.4696 207.5351  1.00272834 49660
INTELSAT 21 (IS-21)     
1 38749U 12045A   26060.43561951 -.00000303  00000+0  00000+0 0  9996
2 38749   0.0431 271.7894 0001790  66.4579 279.8010  1.00271548 49449
INTELSAT 23 (IS-23)     
1 38867U 12057A   26060.43665952 -.00000303  00000+0  00000+0 0  9996
2 38867   0.0512 264.0691 0001038  70.9054 288.4322  1.00274788 48870
FM-6                    
1 39360U 13058A   26060.45800272 -.00000034  00000+0  00000+0 0  9996
2 39360   0.0210 127.6620 0003259  52.4922  27.7936  1.00267346 44992
INTELSAT 30 (IS-30)     
1 40271U 14062A   26060.50453887 -.00000169  00000+0  00000+0 0  9996
2 40271   0.0140  79.3267 0001189  40.3089 126.2417  1.00271511  5712
DIRECTV 14              
1 40333U 14078B   26060.50364439 -.00000143  00000+0  00000+0 0  9998
2 40333   0.0186 113.5799 0000286  50.8466  76.9185  1.00269823 40966
DIRECTV 15              
1 40663U 15026A   26060.39835588 -.00000122  00000+0  00000+0 0  9990
2 40663   0.0192 103.0938 0000936 135.9982 320.6210  1.00277750 39388
SKY MEXICO-1            
1 40664U 15026B   26060.43154617  .00000000  00000+0  00000+0 0  9997
2 40664   0.0266 137.8747 0002242 219.7655 238.1871  1.00267710 39374
INTELSAT 34 (IS-34)     
1 40874U 15039A   26060.43613951 -.00000304  00000+0  00000+0 0  9993
2 40874   0.0149 194.5358 0000086 151.5786 274.6253  1.00273289 38542
INTELSAT 31 (IS-31)     
1 41581U 16035A   26060.50453968 -.00000169  00000+0  00000+0 0  9993
2 41581   0.0385 252.8821 0001986 339.5525  13.4314  1.00271522 35601
INTELSAT 36 (IS-36)     
1 41747U 16053A   26060.38925264  .00000000  00000+0  00000+0 0  9999
2 41747   0.0239 115.6113 0001403 208.5282  43.7042  1.00269885 34873
INTELSAT 32E (IS-32E)   
1 41945U 17007B   26060.43856620 -.00000287  00000+0  00000+0 0  9992
2 41945   0.0136 116.4459 0000517 151.4670   6.0052  1.00269620 33142
INTELSAT 35E (IS-35E)   
1 42818U 17041A   26060.44350201 -.00000257  00000+0  00000+0 0  9992
2 42818   0.0143 213.7902 0002190 122.7820 307.8024  1.00270313 31736
INTELSAT 37E (IS-37E)   
1 42950U 17059A   26060.43239193 -.00000159  00000+0  00000+0 0  9994
2 42950   0.0147 121.3955 0002285 211.2444 324.2340  1.00271463 30987
AZERSPACE 2 (IS-38)     
1 43632U 18074A   26060.22267191  .00000000  00000+0  00000+0 0  9990
2 43632   0.0240 150.6632 0001464 188.0494 305.6030  1.00268768 27361
HORIZONS-3E             
1 43633U 18074B   26060.37453449 -.00000049  00000+0  00000+0 0  9994
2 43633   0.0030 233.9244 0000704  86.7354 142.3058  1.00271795 27267
AT&T T-16               
1 44333U 19034A   26060.39695368 -.00000134  00000+0  00000+0 0  9994
2 44333   0.0206 102.4851 0000876  83.4546  15.2852  1.00272662 24554
INTELSAT 39 (IS-39)     
1 44476U 19049B   26060.49991867  .00000000  00000+0  00000+0 0  9993
2 44476   0.0262 143.4222 0000607  22.0639 235.7363  1.00268787 24048
GALAXY 30 (G-30)        
1 46114U 20056C   26060.40670370  .00000019  00000+0  00000+0 0  9998
2 46114   0.0191 126.8337 0002071 227.9721 185.7736  1.00271297 20210
GALAXY 33 (G-33)        
1 54026U 22128A   26060.35092123  .00000061  00000+0  00000+0 0  9996
2 54026   0.0207  89.5662 0001965 243.1959 179.6830  1.00270270 12666
GALAXY 34 (G-34)        
1 54027U 22128B   26060.34954205  .00000041  00000+0  00000+0 0  9992
2 54027   0.0227 105.6029 0001391 236.1204 174.2470  1.00271938 12836
GALAXY 31 (G-31)        
1 54243U 22153A   26060.51491169 -.00000005  00000+0  00000+0 0  9995
2 54243   0.0213 119.3371 0001546 224.8276 239.4929  1.00271763  6054
GALAXY 32 (G-32)        
1 54244U 22153B   26060.21522517  .00000000  00000+0  00000+0 0  9999
2 54244   0.0199 134.5633 0003055 214.7397 156.2099  1.00269681 12065
GALAXY 35 (G-35)        
1 54741U 22170A   26060.42868615 -.00000180  00000+0  00000+0 0  9995
2 54741   0.0171 121.6112 0002103 214.6678 244.1640  1.00271457 11815
GALAXY 36 (G-36)        
1 54742U 22170B   26060.43284493 -.00000203  00000+0  00000+0 0  9999
2 54742   0.0126 156.8334 0001882 234.1793 195.0232  1.00270978 11694
GALAXY 37 (G-37)        
1 57493U 23112A   26060.51699250  .00000000  00000+0  00000+0 0  9996
2 57493   0.0267 133.5307 0002104 209.5454 235.3647  1.00269896  9463
